{
"type": "FeatureCollection",
"name": "ne_110m_geography_regions_elevation_points",
"crs": { "type": "name", "properties": { "name": "urn:ogc:def:crs:OGC:1.3:CRS84" } },
"features": [
{ "type": "Feature", "properties": { "scalerank": 1, "featurecla": "mountain", "name": "Mt. Everest", "elevation": 8848.0, "comment": "Worlds highest point", "name_alt": null, "lat_y": 27.980475165000001, "long_x": 86.880625847000005, "nation1": null, "nation2": null, "note": null, "region": "Asia", "subregion": null, "min_zoom": 4.0, "label": null, "wikidataid": "Q513", "name_ar": "جبل إفرست", "name_bn": "মাউন্ট এভারেস্ট", "name_de": "Mount Everest", "name_en": "Mount Everest", "name_es": "Everest", "name_fr": "Everest", "name_el": "Έβερεστ", "name_hi": "एवरेस्ट पर्वत", "name_hu": "Csomolungma", "name_id": "Everest", "name_it": "Everest", "name_ja": "エベレスト", "name_ko": "에베레스트산", "name_nl": "Mount Everest", "name_pl": "Mount Everest", "name_pt": "Monte Everest", "name_ru": "Джомолунгма", "name_sv": "Mount Everest", "name_tr": "Everest Dağı", "name_vi": "Everest", "name_zh": "珠穆朗瑪峰", "wdid_score": 4, "ne_id": 1159105715 }, "geometry": { "type": "Point", "coordinates": [ 86.880596034929596, 27.980480509130615 ] } },
{ "type": "Feature", "properties": { "scalerank": 2, "featurecla": "mountain", "name": "Mt. Kilimanjaro", "elevation": 5895.0, "comment": "Highest point in Africa", "name_alt": null, "lat_y": -3.075738214, "long_x": 37.353282096999997, "nation1": null, "nation2": null, "note": null, "region": "Africa", "subregion": null, "min_zoom": 5.0, "label": null, "wikidataid": "Q7296", "name_ar": "جبل كليمنجارو", "name_bn": "কিলিমাঞ্জারো", "name_de": "Kilimandscharo", "name_en": "Mount Kilimanjaro", "name_es": "Kilimanjaro", "name_fr": "Kilimandjaro", "name_el": "Κιλιμάντζαρο", "name_hi": "किलिमंजारो", "name_hu": "Kilimandzsáró", "name_id": "Kilimanjaro", "name_it": "Kilimangiaro", "name_ja": "キリマンジャロ", "name_ko": "킬리만자로 산", "name_nl": "Kilimanjaro", "name_pl": "Kilimandżaro", "name_pt": "Kilimanjaro", "name_ru": "Килиманджаро", "name_sv": "Kilimanjaro", "name_tr": "Kilimanjaro Dağı", "name_vi": "Núi Kilimanjaro", "name_zh": "乞力马扎罗山", "wdid_score": 4, "ne_id": 1159105301 }, "geometry": { "type": "Point", "coordinates": [ 37.353251647031612, -3.075714746279047 ] } },
{ "type": "Feature", "properties": { "scalerank": 2, "featurecla": "mountain", "name": "Vinson Massif", "elevation": 4892.0, "comment": null, "name_alt": null, "lat_y": -78.529351495, "long_x": -85.633717414000003, "nation1": null, "nation2": null, "note": null, "region": "Antarctica", "subregion": null, "min_zoom": 5.0, "label": null, "wikidataid": "Q25378399", "name_ar": null, "name_bn": null, "name_de": "Vinson-Massiv", "name_en": "Vinson Massif", "name_es": null, "name_fr": "Massif Vinson", "name_el": null, "name_hi": null, "name_hu": null, "name_id": null, "name_it": null, "name_ja": null, "name_ko": null, "name_nl": null, "name_pl": null, "name_pt": null, "name_ru": null, "name_sv": null, "name_tr": null, "name_vi": null, "name_zh": null, "wdid_score": 4, "ne_id": 1159105413 }, "geometry": { "type": "Point", "coordinates": [ -85.633729484894999, -78.529362492279134 ] } },
{ "type": "Feature", "properties": { "scalerank": 2, "featurecla": "depression", "name": "Turpan Depression", "elevation": -154.0, "comment": null, "name_alt": null, "lat_y": 42.768683173, "long_x": 89.340098503999997, "nation1": null, "nation2": null, "note": null, "region": "Asia", "subregion": null, "min_zoom": 5.0, "label": null, "wikidataid": "Q284780", "name_ar": null, "name_bn": null, "name_de": "Turpan-Senke", "name_en": "Turpan Depression", "name_es": "Depresión de Turfán", "name_fr": "Dépression de Tourfan", "name_el": null, "name_hi": "तुरफ़ान द्रोणी", "name_hu": "Turfáni mélyföld", "name_id": "Cekungan Turpan", "name_it": "Depressione di Turfan", "name_ja": "トルファン盆地", "name_ko": "투루판 분지", "name_nl": "Turpanlaagte", "name_pl": "Kotlina Turfańska", "name_pt": "Depressão de Turfan", "name_ru": "Турфанская впадина", "name_sv": "Turpan Pendi", "name_tr": "Turfan Havzası", "name_vi": null, "name_zh": "吐鲁番盆地", "wdid_score": 5, "ne_id": 1159105721 }, "geometry": { "type": "Point", "coordinates": [ 89.34011996654479, 42.768685221849474 ] } },
{ "type": "Feature", "properties": { "scalerank": 2, "featurecla": "depression", "name": null, "elevation": -416.0, "comment": "Worlds lowest point", "name_alt": null, "lat_y": 31.515387273999998, "long_x": 35.474742057999997, "nation1": null, "nation2": null, "note": null, "region": "Asia", "subregion": null, "min_zoom": 5.0, "label": null, "wikidataid": null, "name_ar": null, "name_bn": null, "name_de": null, "name_en": null, "name_es": null, "name_fr": null, "name_el": null, "name_hi": null, "name_hu": null, "name_id": null, "name_it": null, "name_ja": null, "name_ko": null, "name_nl": null, "name_pl": null, "name_pt": null, "name_ru": null, "name_sv": null, "name_tr": null, "name_vi": null, "name_zh": null, "wdid_score": 0, "ne_id": 1159105723 }, "geometry": { "type": "Point", "coordinates": [ 35.47472016487373, 31.515389797694517 ] } },
{ "type": "Feature", "properties": { "scalerank": 2, "featurecla": "pass", "name": "Khyber Pass", "elevation": 1070.0, "comment": null, "name_alt": null, "lat_y": 34.098395087, "long_x": 71.097788933000004, "nation1": null, "nation2": null, "note": null, "region": "Asia", "subregion": null, "min_zoom": 5.0, "label": null, "wikidataid": "Q191333", "name_ar": "ممر خيبر", "name_bn": "খাইবার গিরিপথ", "name_de": "Chaiber-Pass", "name_en": "Khyber Pass", "name_es": "Paso Khyber", "name_fr": "Passe de Khyber", "name_el": null, "name_hi": "ख़ैबर दर्रा", "name_hu": "Haibár-hágó", "name_id": "Celah Khyber", "name_it": "Passo Khyber", "name_ja": "カイバル峠", "name_ko": "카이베르 고개", "name_nl": "Khyberpas", "name_pl": "Chajber", "name_pt": "Passo Khyber", "name_ru": "Хайберский проход", "name_sv": "Khyberpasset", "name_tr": "Hayber Geçidi", "name_vi": null, "name_zh": "开伯尔山口", "wdid_score": 4, "ne_id": 1159105727 }, "geometry": { "type": "Point", "coordinates": [ 71.09782951165829, 34.09839078145032 ] } },
{ "type": "Feature", "properties": { "scalerank": 2, "featurecla": "mountain", "name": "K2", "elevation": 8611.0, "comment": null, "name_alt": null, "lat_y": 35.882391669, "long_x": 76.513194206999998, "nation1": null, "nation2": null, "note": null, "region": "Asia", "subregion": null, "min_zoom": 5.0, "label": null, "wikidataid": "Q43512", "name_ar": "جبل كي 2", "name_bn": "কে২", "name_de": "K2", "name_en": "K2", "name_es": "K2", "name_fr": "K2", "name_el": "Κ2", "name_hi": "के२", "name_hu": "K2", "name_id": "K2", "name_it": "K2", "name_ja": "K2", "name_ko": "K2", "name_nl": "K2", "name_pl": "K2", "name_pt": "K2", "name_ru": "Чогори", "name_sv": "K2", "name_tr": "K2 Dağı", "name_vi": "K2", "name_zh": "喬戈里峰", "wdid_score": 4, "ne_id": 1159105729 }, "geometry": { "type": "Point", "coordinates": [ 76.513209078095741, 35.882405972470139 ] } },
{ "type": "Feature", "properties": { "scalerank": 2, "featurecla": "mountain", "name": "Muztag Feng", "elevation": 6973.0, "comment": null, "name_alt": "Ulugh Muztag", "lat_y": 36.416510320999997, "long_x": 87.413218621, "nation1": null, "nation2": null, "note": null, "region": "Asia", "subregion": null, "min_zoom": 5.0, "label": null, "wikidataid": "Q1560829", "name_ar": null, "name_bn": null, "name_de": "Ulugh Muztagh", "name_en": "Ulugh Muztagh", "name_es": "Ulugh Muztagh", "name_fr": "Ulugh Muztagh", "name_el": null, "name_hi": null, "name_hu": null, "name_id": null, "name_it": null, "name_ja": null, "name_ko": null, "name_nl": "Ulugh Muztagh", "name_pl": "Ulug Muztag", "name_pt": "Ulugh Muztagh", "name_ru": "Улугмузтаг", "name_sv": "Muztag Feng", "name_tr": "Uluğ Muzdağ", "name_vi": null, "name_zh": "木孜塔格山", "wdid_score": 4, "ne_id": 1159105731 }, "geometry": { "type": "Point", "coordinates": [ 87.413199374650361, 36.416503800555063 ] } },
{ "type": "Feature", "properties": { "scalerank": 2, "featurecla": "mountain", "name": "Kailash", "elevation": 6638.0, "comment": null, "name_alt": null, "lat_y": 31.06659577, "long_x": 81.312510613000001, "nation1": null, "nation2": null, "note": null, "region": "Asia", "subregion": null, "min_zoom": 5.0, "label": null, "wikidataid": "Q229107", "name_ar": null, "name_bn": "কৈলাস পর্বত", "name_de": "Kailash", "name_en": "Mount Kailash", "name_es": "Kailash", "name_fr": "Kailash", "name_el": null, "name_hi": "कैलाश पर्वत", "name_hu": "Kajlás-hegy", "name_id": null, "name_it": "Kailash", "name_ja": "カイラス山", "name_ko": "카일라스 산", "name_nl": "Kailash", "name_pl": "Kajlas", "name_pt": "Monte Kailash", "name_ru": "Кайлас", "name_sv": "Kailash", "name_tr": null, "name_vi": "Núi Kailash", "name_zh": "冈仁波齐峰", "wdid_score": 2, "ne_id": 1159105733 }, "geometry": { "type": "Point", "coordinates": [ 81.312536305884493, 31.066598981098316 ] } },
{ "type": "Feature", "properties": { "scalerank": 2, "featurecla": "depression", "name": null, "elevation": -28.0, "comment": "Lowest point in Europe", "name_alt": null, "lat_y": 44.257574773999998, "long_x": 49.009532096999997, "nation1": null, "nation2": null, "note": null, "region": "Europe", "subregion": null, "min_zoom": 5.0, "label": null, "wikidataid": null, "name_ar": null, "name_bn": null, "name_de": null, "name_en": null, "name_es": null, "name_fr": null, "name_el": null, "name_hi": null, "name_hu": null, "name_id": null, "name_it": null, "name_ja": null, "name_ko": null, "name_nl": null, "name_pl": null, "name_pt": null, "name_ru": null, "name_sv": null, "name_tr": null, "name_vi": null, "name_zh": null, "wdid_score": 0, "ne_id": 1159105951 }, "geometry": { "type": "Point", "coordinates": [ 49.009533839000483, 44.257559156738566 ] } },
{ "type": "Feature", "properties": { "scalerank": 2, "featurecla": "mountain", "name": "Gora Elbrus", "elevation": 5642.0, "comment": "Highest point in Europe", "name_alt": "Mount Elbrus", "lat_y": 43.355169988999997, "long_x": 42.439219596999997, "nation1": null, "nation2": null, "note": null, "region": "Europe", "subregion": null, "min_zoom": 5.0, "label": null, "wikidataid": "Q43105", "name_ar": "إلبروس", "name_bn": "এলব্রুস পর্বত", "name_de": "Elbrus", "name_en": "Mount Elbrus", "name_es": "Monte Elbrus", "name_fr": "Elbrouz", "name_el": "Ελμπρούς", "name_hi": "एल्ब्रुस पर्वत", "name_hu": "Elbrusz", "name_id": "Gunung Elbrus", "name_it": "Monte Elbrus", "name_ja": "エルブルス山", "name_ko": "옐브루스 산", "name_nl": "Elbroes", "name_pl": "Elbrus", "name_pt": "Monte Elbrus", "name_ru": "Эльбрус", "name_sv": "Elbrus", "name_tr": "Elbruz Dağı", "name_vi": "Elbrus", "name_zh": "厄尔布鲁士山", "wdid_score": 4, "ne_id": 1159105953 }, "geometry": { "type": "Point", "coordinates": [ 42.439197508117729, 43.355170925834429 ] } },
{ "type": "Feature", "properties": { "scalerank": 2, "featurecla": "depression", "name": "Death Valley", "elevation": -86.0, "comment": "Lowest point in N. America", "name_alt": null, "lat_y": 36.24225495, "long_x": -116.828236457, "nation1": null, "nation2": null, "note": null, "region": "North America", "subregion": null, "min_zoom": 5.0, "label": null, "wikidataid": "Q118388", "name_ar": "وادي الموت", "name_bn": null, "name_de": "Death Valley", "name_en": "Death Valley", "name_es": "Valle de la Muerte", "name_fr": "vallée de la Mort", "name_el": "Κοιλάδα του Θανάτου", "name_hi": "डेथ वैली", "name_hu": null, "name_id": "Death Valley", "name_it": "Valle della Morte", "name_ja": "デスヴァレー", "name_ko": "데스 밸리", "name_nl": "Death Valley", "name_pl": "Dolina Śmierci", "name_pt": "Vale da Morte", "name_ru": "Долина Смерти", "name_sv": "Death Valley", "name_tr": "Death Valley", "name_vi": "Thung lũng Chết", "name_zh": "死亡谷", "wdid_score": 4, "ne_id": 1159106291 }, "geometry": { "type": "Point", "coordinates": [ -116.828225501354567, 36.242254535610769 ] } },
{ "type": "Feature", "properties": { "scalerank": 2, "featurecla": "mountain", "name": "Denali", "elevation": 6194.0, "comment": "Highest point in N. America", "name_alt": "Mt. McKinley", "lat_y": 63.069403387000001, "long_x": -151.007313606, "nation1": null, "nation2": null, "note": null, "region": "North America", "subregion": null, "min_zoom": 5.0, "label": null, "wikidataid": "Q130018", "name_ar": "دينالي", "name_bn": "দেনালি", "name_de": "Denali", "name_en": "Denali", "name_es": "Denali", "name_fr": "Denali", "name_el": "Όρος ΜακΚίνλεϊ", "name_hi": "देनाली", "name_hu": "Denali", "name_id": "Denali", "name_it": "Denali", "name_ja": "デナリ", "name_ko": "매킨리 산", "name_nl": "Denali", "name_pl": "Denali", "name_pt": "Monte Denali", "name_ru": "Денали", "name_sv": "Denali", "name_tr": "Denali Dağı", "name_vi": "Denali", "name_zh": "丹奈利峰", "wdid_score": 4, "ne_id": 1159106297 }, "geometry": { "type": "Point", "coordinates": [ -151.007295564174512, 63.06941124467545 ] } },
{ "type": "Feature", "properties": { "scalerank": 2, "featurecla": "mountain", "name": "Mt. Whitney", "elevation": 4421.0, "comment": null, "name_alt": null, "lat_y": 36.582709051999998, "long_x": -118.292225715, "nation1": null, "nation2": null, "note": null, "region": "North America", "subregion": null, "min_zoom": 5.0, "label": null, "wikidataid": "Q235539", "name_ar": "جبل ويتني", "name_bn": null, "name_de": "Mount Whitney", "name_en": "Mount Whitney", "name_es": "Monte Whitney", "name_fr": "mont Whitney", "name_el": null, "name_hi": null, "name_hu": null, "name_id": null, "name_it": "Monte Whitney", "name_ja": "ホイットニー山", "name_ko": "휘트니 산", "name_nl": "Mount Whitney", "name_pl": "Mount Whitney", "name_pt": "Monte Whitney", "name_ru": "Уитни", "name_sv": "Mount Whitney", "name_tr": "Whitney Dağı", "name_vi": "Núi Whitney", "name_zh": "惠特尼峰", "wdid_score": 4, "ne_id": 1159106313 }, "geometry": { "type": "Point", "coordinates": [ -118.292218224559448, 36.582715141594875 ] } },
{ "type": "Feature", "properties": { "scalerank": 2, "featurecla": "depression", "name": null, "elevation": -16.0, "comment": "Lowest point in Australia", "name_alt": null, "lat_y": -28.448663019000001, "long_x": 137.284434441, "nation1": null, "nation2": null, "note": null, "region": "Oceania", "subregion": "Australia", "min_zoom": 5.0, "label": null, "wikidataid": null, "name_ar": null, "name_bn": null, "name_de": null, "name_en": null, "name_es": null, "name_fr": null, "name_el": null, "name_hi": null, "name_hu": null, "name_id": null, "name_it": null, "name_ja": null, "name_ko": null, "name_nl": null, "name_pl": null, "name_pt": null, "name_ru": null, "name_sv": null, "name_tr": null, "name_vi": null, "name_zh": null, "wdid_score": 0, "ne_id": 1159106743 }, "geometry": { "type": "Point", "coordinates": [ 137.284437652612297, -28.448653493871916 ] } },
{ "type": "Feature", "properties": { "scalerank": 2, "featurecla": "mountain", "name": "Mt. Kosciuszko", "elevation": 2228.0, "comment": "Highest point in Australia", "name_alt": null, "lat_y": -36.455865167, "long_x": 148.263194207, "nation1": null, "nation2": null, "note": null, "region": "Oceania", "subregion": "Australia", "min_zoom": 5.0, "label": null, "wikidataid": "Q178167", "name_ar": "جبل كوسيياسكو", "name_bn": "মাউন্ট কস্চিয়স্কো", "name_de": "Mount Kosciuszko", "name_en": "Mount Kosciuszko", "name_es": "Monte Kosciuszko", "name_fr": "mont Kosciuszko", "name_el": "Κόσιουσκο", "name_hi": "कोज़िअस्को पर्वत", "name_hu": "Mount Kosciuszko", "name_id": "Gunung Kosciuszko", "name_it": "Monte Kosciuszko", "name_ja": "コジオスコ", "name_ko": "코지어스코 산", "name_nl": "Mount Kosciuszko", "name_pl": "Góra Kościuszki", "name_pt": "Monte Kosciuszko", "name_ru": "Косцюшко", "name_sv": "Mount Kosciuszko", "name_tr": "Kosciuszko Dağı", "name_vi": "Núi Kosciuszko", "name_zh": "科修斯科山", "wdid_score": 4, "ne_id": 1159106753 }, "geometry": { "type": "Point", "coordinates": [ 148.263191525115332, -36.455879799517831 ] } },
{ "type": "Feature", "properties": { "scalerank": 2, "featurecla": "mountain", "name": "Cerro Aconcagua", "elevation": 6959.0, "comment": "Highest point in S. America", "name_alt": null, "lat_y": -32.655694269000001, "long_x": -70.015797492999994, "nation1": null, "nation2": null, "note": null, "region": "South America", "subregion": null, "min_zoom": 5.0, "label": null, "wikidataid": "Q39739", "name_ar": "أكونكاغوا", "name_bn": "অ্যাকনকাগুয়া পর্বত", "name_de": "Aconcagua", "name_en": "Aconcagua", "name_es": "Aconcagua", "name_fr": "Aconcagua", "name_el": "Ακονκάγκουα", "name_hi": "अकोंकागुआ", "name_hu": "Aconcagua", "name_id": "Akonkagua", "name_it": "Aconcagua", "name_ja": "アコンカグア", "name_ko": "아콩카과 산", "name_nl": "Aconcagua", "name_pl": "Aconcagua", "name_pt": "Aconcágua", "name_ru": "Аконкагуа", "name_sv": "Aconcagua", "name_tr": "Aconcagua", "name_vi": "Aconcagua", "name_zh": "阿空加瓜山", "wdid_score": 4, "ne_id": 1159108719 }, "geometry": { "type": "Point", "coordinates": [ -70.01580098903159, -32.655678630528783 ] } },
{ "type": "Feature", "properties": { "scalerank": 2, "featurecla": "depression", "name": null, "elevation": -40.0, "comment": "Lowest point in S. America", "name_alt": null, "lat_y": -42.623955988, "long_x": -63.968800422000001, "nation1": null, "nation2": null, "note": null, "region": "South America", "subregion": null, "min_zoom": 5.0, "label": null, "wikidataid": null, "name_ar": null, "name_bn": null, "name_de": null, "name_en": null, "name_es": null, "name_fr": null, "name_el": null, "name_hi": null, "name_hu": null, "name_id": null, "name_it": null, "name_ja": null, "name_ko": null, "name_nl": null, "name_pl": null, "name_pt": null, "name_ru": null, "name_sv": null, "name_tr": null, "name_vi": null, "name_zh": null, "wdid_score": 0, "ne_id": 1159108751 }, "geometry": { "type": "Point", "coordinates": [ -63.968777935065432, -42.623996802557443 ] } },
{ "type": "Feature", "properties": { "scalerank": 2, "featurecla": "mountain", "name": "Cero Raya", "elevation": 2070.0, "comment": null, "name_alt": null, "lat_y": 5.451666571, "long_x": -66.375599738999995, "nation1": null, "nation2": null, "note": null, "region": "South America", "subregion": null, "min_zoom": 5.0, "label": null, "wikidataid": null, "name_ar": null, "name_bn": null, "name_de": null, "name_en": null, "name_es": null, "name_fr": null, "name_el": null, "name_hi": null, "name_hu": null, "name_id": null, "name_it": null, "name_ja": null, "name_ko": null, "name_nl": null, "name_pl": null, "name_pt": null, "name_ru": null, "name_sv": null, "name_tr": null, "name_vi": null, "name_zh": null, "wdid_score": 0, "ne_id": 1159108759 }, "geometry": { "type": "Point", "coordinates": [ -66.375590858161303, 5.451674293245532 ] } }
]
}
